{"fetched_at":"2026-03-29T02:12:04Z","count":15717,"tles":[{"name":"GPS BIIF-5  (PRN 30)","line1":"1 39533U 14008A   26087.41311887 -.00000002  00000+0  00000+0 0  9993","line2":"2 39533  53.6397 152.6153 0083084 229.1635 130.1722  2.00554546 88061","category":"GPS"}]}